KUIPER-00008            
1 63724U 25088A   25357.24289290 -.00008214  00000+0 -64760-3 0  9995
2 63724  51.8903  75.3746 0008911 198.9462 161.1179 14.99084507 36596
KUIPER-00009            
1 63725U 25088B   25357.47418380  .00003476  00000+0  48432-3 0  9996
2 63725  51.9036  83.6453 0011252 200.0514 160.0008 14.79959494 36499
KUIPER-00010            
1 63726U 25088C   25357.85874691  .00001496  00000+0  22278-3 0  9990
2 63726  51.9027  58.2763 0011591 248.1738 111.7992 14.80444606 36502
KUIPER-00011            
1 63727U 25088D   25357.49201195  .00000221  00000+0  58389-4 0  9992
2 63727  51.9015  67.6015 0012934 220.7512 139.2484 14.79943605 36470
KUIPER-00012            
1 63728U 25088E   25357.88961254  .00003582  00000+0  53588-3 0  9993
2 63728  51.9023  49.4707 0008200 231.1305 128.8925 14.76815556 36714
KUIPER-00013            
1 63729U 25088F   25357.47315342  .00001495  00000+0  22523-3 0  9996
2 63729  51.9029  85.1162 0007726 131.0272 229.1360 14.79940795 36283
KUIPER-00014            
1 63730U 25088G   25357.53840743  .00002913  00000+0  41125-3 0  9998
2 63730  51.9023  85.7915 0006346 200.3142 159.7569 14.79910817 36094
KUIPER-00015            
1 63731U 25088H   25357.56365774  .00002824  00000+0  38019-3 0  9997
2 63731  51.8992  96.5101 0010502 181.9379 178.1545 14.82038485 36401
